GPS BIIF-7  (PRN 09)    
1 40105U 14045A   26063.84593997  .00000005  00000+0  00000+0 0  9998
2 40105  55.2815  92.6206 0031508 120.4743 239.9033  2.00551558 83989
GPS BIIF-8  (PRN 03)    
1 40294U 14068A   26064.22260262 -.00000079  00000+0  00000+0 0  9993
2 40294  56.9201  34.9602 0062818  68.0542 292.5966  2.00569928 83122
GPS BIIF-9  (PRN 26)    
1 40534U 15013A   26064.35398615  .00000005  00000+0  00000+0 0  9997
2 40534  53.1861 208.4703 0108751  39.7984 320.9422  2.00557561 79748
GPS BIIF-10 (PRN 08)    
1 40730U 15033A   26064.51449839 -.00000015  00000+0  00000+0 0  9992
2 40730  54.0638 271.3591 0114524  29.0017 331.6534  2.00561575 77916
GPS BIIF-11 (PRN 10)    
1 41019U 15062A   26064.57330864 -.00000079  00000+0  00000+0 0  9998
2 41019  56.8937  34.8029 0111452 231.5057 127.4773  2.00567091 75753
GPS BIIF-12 (PRN 32)    
1 41328U 16007A   26064.16012979  .00000004  00000+0  00000+0 0  9997
2 41328  55.4561  93.5827 0095453 246.0235 113.0379  2.00556727 73758
GPS BIII-1  (PRN 04)    
1 43873U 18109A   26064.54824937  .00000003  00000+0  00000+0 0  9995
2 43873  55.6158  96.2741 0037932 198.3516 334.4617  2.00556893 52994
GPS BIII-2  (PRN 18)    
1 44506U 19056A   26064.18575662 -.00000100  00000+0  00000+0 0  9998
2 44506  55.6843 335.2783 0058036 198.1200 333.2871  2.00568377 47989
GPS BIII-3  (PRN 23)    
1 45854U 20041A   26064.26889156 -.00000083  00000+0  00000+0 0  9996
2 45854  56.6063  32.9753 0061399 205.2468 328.3125  2.00560688 41956
GPS BIII-4  (PRN 14)    
1 46826U 20078A   26064.79964802  .00000012  00000+0  00000+0 0  9997
2 46826  54.0013 214.9691 0068279 204.3383 325.7195  2.00565559 39436
GPS BIII-5  (PRN 11)    
1 48859U 21054A   26064.07032190 -.00000101  00000+0  00000+0 0  9997
2 48859  55.2207 336.6471 0023861 232.0319 315.6765  2.00575594 34666
GPS BIII-6  (PRN 28)    
1 55268U 23009A   26064.24350115  .00000010  00000+0  00000+0 0  9998
2 55268  55.1095 152.6049 0004568 336.6055  15.2776  2.00549197 23157
GPS BIII-7  (PRN 01)    
1 62339U 24242A   26059.41642148 -.00000100  00000+0  00000+0 0  9999
2 62339  54.8934 338.5934 0015681 355.9356 192.4850  2.00569355  9070
GPS BIII-8  (PRN 21)    
1 64202U 25116A   26062.39238152 -.00000077  00000+0  00000+0 0  9991
2 64202  55.1633  35.3874 0008474 325.1064  37.8908  2.00553198  5758
GPS BIII-9  (PRN 20)    
1 67588U 26017A   26062.99831483  .00000012  00000+0  00000+0 0  9992
2 67588  55.0184  92.9751 0001516  18.2827 341.7919  2.00560918429508
